IRIDIUM 112             
1 41925U 17003J   25164.75576639  .00000316  00000+0  10579-3 0  9992
2 41925  86.3974 242.2016 0002226  97.4959 262.6490 14.34219137440464
IRIDIUM 111             
1 41926U 17003K   25164.74308199  .00000037  00000+0  62975-5 0  9995
2 41926  86.3975 242.2695 0002449  92.9381 267.2095 14.34217971440449
IRIDIUM 113             
1 42803U 17039A   25164.79281522  .00000017  00000+0 -90240-6 0  9990
2 42803  86.3973 116.1778 0002181  91.5141 268.6304 14.34217590418388
IRIDIUM 123             
1 42804U 17039B   25164.69475727  .00000015  00000+0 -15317-5 0  9991
2 42804  86.3984 147.6764 0002539  84.1262 276.0223 14.34217369417133
IRIDIUM 120             
1 42805U 17039C   25164.85624079  .00000274  00000+0  90694-4 0  9992
2 42805  86.3956 115.9813 0002409  76.4062 283.7401 14.34218713418389
IRIDIUM 115             
1 42806U 17039D   25164.83315807  .00000407  00000+0  11499-3 0  9990
2 42806  86.4496 116.0691 0002999  79.1793 280.9745 14.43282638421135
IRIDIUM 118             
1 42807U 17039E   25164.65669781  .00000410  00000+0  13916-3 0  9994
2 42807  86.3981 147.6921 0002256  90.8142 269.3312 14.34217783417128
IRIDIUM 117             
1 42808U 17039F   25164.88503228  .00000182  00000+0  58086-4 0  9997
2 42808  86.3977 147.5577 0002611  87.8530 272.2964 14.34216654417180
